satname,norad_id,inclination_deg,eccentricity,mean_motion_rev_per_day,perigee_km,apogee_km,l1,l2
STARLINK-1446,45663,53.0277,0.0005869,15.39952916,442.2431861781006,450.25364978172547,1 45663U 20035G   26005.07447803  .00020371  00000+0  51205-3 0  9998,2 45663  53.0277 300.8766 0005869  77.2884 282.8775 15.39952916309869
STARLINK-1448,45665,53.057,0.0001571,15.06404466,546.1099002171868,548.2858404334438,1 45665U 20035J   26005.33260587 -.00004244  00000+0 -26613-3 0  9999,2 45665  53.0570 351.0387 0001571  90.3481 269.7688 15.06404466309176
STARLINK-1451,45668,53.0556,0.0001808,15.06762707,544.848234149762,547.3520382982215,1 45668U 20035M   26005.33568196  .00035845  00000+0  23896-2 0  9997,2 45668  53.0556 351.3364 0001808  90.6556 269.4641 15.06762707309182
STARLINK-1452,45669,53.0384,0.0003861,15.35035961,458.1731638543797,463.4542015715706,1 45669U 20035N   26005.58554199  .00055165  00000+0  15989-2 0  9994,2 45669  53.0384 319.9518 0003861 119.4736 240.6651 15.35035961309644
STARLINK-1453,45670,53.0546,0.0005974,15.39514732,443.4656211672009,451.62094396881184,1 45670U 20035P   26005.66668981  .00120011  00000+0  29720-2 0  9991,2 45670  53.0546 313.7855 0005974  98.5922 274.2328 15.39514732  5811
STARLINK-1454,45671,53.0563,0.0001457,15.0638478,546.2491753575177,548.2672355203831,1 45671U 20035Q   26005.35840770  .00001446  00000+0  11601-3 0  9996,2 45671  53.0563 350.9259 0001457  93.0202 267.0953 15.06384780309177
STARLINK-1456,45673,53.0549,0.0004361,15.37485972,450.5671289832044,456.5257232674712,1 45673U 20035S   26005.36343634  .00123529  00000+0  32671-2 0  9992,2 45673  53.0549 347.2924 0004361  75.6785 284.4701 15.37485972309241
STARLINK-1457,45674,53.0526,0.001319,15.54187244,395.569920655651,413.4625599035089,1 45674U 20035T   26005.66668981  .00197208  00000+0  29012-2 0  9991,2 45674  53.0526 333.0423 0013190  59.6878 181.4837 15.54187244  5967
STARLINK-1458,45675,53.0571,0.0001696,15.06412768,545.9978936549287,548.3469586122737,1 45675U 20035U   26005.36943245  .00001516  00000+0  12059-3 0  9998,2 45675  53.0571 350.8714 0001696  93.4257 266.6926 15.06412768309155
STARLINK-1460,45676,53.0562,0.0001172,15.06396404,546.410927039602,548.0342313249621,1 45676U 20035V   26005.33996532  .00001057  00000+0  89829-4 0  9993,2 45676  53.0562 351.0063 0001172 103.1639 256.9481 15.06396404309143
STARLINK-1392,45677,53.0542,0.0001496,15.0640191,546.1696728010247,548.2417353380833,1 45677U 20035W   26005.35102597  .00005414  00000+0  38203-3 0  9996,2 45677  53.0542 350.9556 0001496  89.2779 270.8381 15.06401910309182
STARLINK-1394,45679,53.0543,0.0003714,15.38329728,448.5117723103549,453.5844910261576,1 45679U 20035Y   26005.66668981  .00123467  00000+0  31775-2 0  9991,2 45679  53.0543 335.9078 0003714  84.6317 265.7587 15.38329728  5791
STARLINK-1402,45685,53.0531,0.0009139,15.35047477,454.52939280914234,467.02956434868884,1 45685U 20035AE  26005.66668981  .00123303  00000+0  35236-2 0  9993,2 45685  53.0531 321.1604 0009139  54.3215 159.1115 15.35047477  5827
STARLINK-1404,45686,53.0516,0.0001489,15.06404982,546.1651067411867,548.2274709946105,1 45686U 20035AF  26005.63944865  .00004739  00000+0  33681-3 0  9993,2 45686  53.0516 339.6641 0001489  99.9921 260.1236 15.06404982309375
STARLINK-1413,45689,53.0561,0.0001426,15.06409579,546.1946493205805,548.1697503563746,1 45689U 20035AJ  26005.32614122  .00003117  00000+0  22800-3 0  9992,2 45689  53.0561 341.0664 0001426  90.2594 269.8558 15.06409579309236
STARLINK-1417,45693,53.054,0.0005938,15.09091519,534.8673218540762,543.0820837123019,1 45693U 20035AN  26005.61483562  .00043176  00000+0  26948-2 0  9996,2 45693  53.0540 339.3586 0005938  55.1474 305.0074 15.09091519309364
STARLINK-1420,45695,53.0548,0.0001494,15.0639488,546.1926006263511,548.2618994642635,1 45695U 20035AQ  26005.58875768  .00013804  00000+0  94389-3 0  9997,2 45695  53.0548 319.8808 0001494  92.3348 267.7812 15.06394880309649
STARLINK-1422,45696,53.055,0.0001521,15.06394692,546.1744782514834,548.2811742316262,1 45696U 20035AR  26005.39988322  .00005582  00000+0  39337-3 0  9994,2 45696  53.0550 340.7383 0001521  95.6223 264.4939 15.06394692309323
STARLINK-1351,45697,53.0568,0.0001682,15.10382469,533.8698960102329,536.1954862943367,1 45697U 20035AS  26005.27693990  .00017252  00000+0  10539-2 0  9995,2 45697  53.0568 320.9514 0001682 101.3286 258.7894 15.10382469309602
STARLINK-1398,45699,53.0441,0.00072,15.66315591,364.5995192095734,374.31605570351076,1 45699U 20035AU  26005.66668981  .00220827  00000+0  20414-2 0  9999,2 45699  53.0441 255.0052 0007200 108.8091 282.9865 15.66315591  5891
STARLINK-1400,45700,53.0565,0.0001304,15.06375902,546.3823407390992,548.188490905146,1 45700U 20035AV  26005.15107651  .00000300  00000+0  39079-4 0  9999,2 45700  53.0565 321.8540 0001304  94.9759 265.1379 15.06375902309571
STARLINK-1403,45701,53.0538,8.93e-05,15.06403426,546.5826250730552,547.8194904501706,1 45701U 20035AW  26005.57863159  .00007313  00000+0  50929-3 0  9995,2 45701  53.0538 319.9351 0000893  88.3388 271.7703 15.06403426309631
STARLINK-1407,45703,53.039,0.000475,15.48093065,419.0746382971238,425.5350580528893,1 45703U 20035AY  26005.09378571  .00030416  00000+0  57652-3 0  9993,2 45703  53.0390 262.8654 0004750 246.8587 113.1920 15.48093065310406
STARLINK-1411,45706,53.0495,0.000272,15.51667372,410.0106238772687,413.70438088656465,1 45706U 20035BB  26005.18527450  .00100186  00000+0  16430-2 0  9998,2 45706  53.0495 289.1226 0002720 130.4884 229.6363 15.51667372310030
STARLINK-1423,45710,53.0582,0.000151,15.0638827,546.2017758712846,548.2932419929821,1 45710U 20035BF  26005.60444473  .00001469  00000+0  11756-3 0  9994,2 45710  53.0582 319.8180 0001510 100.8298 259.2861 15.06388270309642
STARLINK-1433,45711,53.0564,0.0001257,15.0639973,546.341869031763,548.0829018672639,1 45711U 20035BG  26005.25427245 -.00001771  00000+0 -10005-3 0  9998,2 45711  53.0564 321.3934 0001257  93.3163 266.7970 15.06399730309583
STARLINK-1434,45712,53.0509,0.0003028,15.20219429,503.0939061585723,507.2624418279429,1 45712U 20035BH  26005.25295627  .00043652  00000+0  19914-2 0  9995,2 45712  53.0509 312.3171 0003028  40.2917 319.8302 15.20219429309729
STARLINK-1465,45731,53.0535,0.0001309,15.06394298,546.3225033883373,548.135564215987,1 45731U 20038B   26005.61917635  .00000302  00000+0  39174-4 0  9996,2 45731  53.0535 159.7521 0001309  84.1368 275.9770 15.06394298306683
STARLINK-1471,45735,53.0501,0.0002032,15.44309378,432.02397844712505,434.7921903694287,1 45735U 20038F   26005.50841181  .00027504  00000+0  59471-3 0  9994,2 45735  53.0501  83.6306 0002032  59.4368 300.6838 15.44309378307752
STARLINK-1474,45738,53.0318,0.0005044,15.8267703,319.4936644701147,326.25364401811566,1 45738U 20038J   26005.66668981  .00136006  00000+0  62656-3 0  9996,2 45738  53.0318  25.0082 0005044  67.9517 152.2551 15.82677030  5942
STARLINK-1480,45741,53.0538,0.0001215,15.37215374,453.5179823443732,455.1782762307903,1 45741U 20038M   26005.63591693  .00132851  00000+0  35400-2 0  9992,2 45741  53.0538 156.5398 0001215  11.7636 348.3395 15.37215374306740
STARLINK-1500,45744,53.0379,0.0002718,15.3123698,470.2586815302311,473.9824815515567,1 45744U 20038Q   26005.63247617  .00031996  00000+0  10533-2 0  9997,2 45744  53.0379 127.7149 0002718  60.9250 299.2022 15.31236980307143
STARLINK-1504,45746,53.0253,0.0002621,15.48263108,420.02465342198957,423.58918402418567,1 45746U 20038S   26005.59860339  .00056114  00000+0  10472-2 0  9997,2 45746  53.0253  85.5251 0002621  16.8523 343.2570 15.48263108307729
STARLINK-1506,45747,53.0782,0.0003725,15.23883564,491.57999970564106,496.69984601317265,1 45747U 20038T   26005.61742254  .00013647  00000+0  57077-3 0  9993,2 45747  53.0782 133.6164 0003725  74.6602 285.4807 15.23883564307065
STARLINK-1464,45751,53.0547,8.38e-05,15.06403104,546.6217012297302,547.7823880536125,1 45751U 20038X   26005.66892926 -.00001566  00000+0 -86265-4 0  9996,2 45751  53.0547 139.5276 0000838  87.0771 273.0314 15.06403104306980
STARLINK-1477,45754,53.0527,0.0003924,15.10568463,531.7527023457051,537.177712558113,1 45754U 20038AA  26005.65609301  .00054569  00000+0  32613-2 0  9996,2 45754  53.0527 138.5929 0003924 165.2182 194.8924 15.10568463306992
STARLINK-1478,45755,53.0568,0.0001228,15.23643145,494.0188272541791,495.7068360128278,1 45755U 20038AB  26005.66668981  .01037129  00000+0  39150-1 0  9993,2 45755  53.0568 138.8879 0001228  76.6086  66.7507 15.23643145  5791
STARLINK-1484,45756,53.0103,0.0004191,15.75160919,341.3559864370918,346.99062693615724,1 45756U 20038AC  26005.49534683  .00135089  00000+0  87393-3 0  9993,2 45756  53.0103  16.7094 0004191  58.9291 301.2138 15.75160919308673
STARLINK-1493,45759,53.0559,0.0001309,15.06395154,546.319880199736,548.1329403405462,1 45759U 20038AF  26005.62470603  .00000559  00000+0  56415-4 0  9997,2 45759  53.0559 139.7268 0001309  94.2140 265.8998 15.06395154306968
STARLINK-1494,45760,53.0526,0.0001552,15.57684387,393.3095643137194,395.4117475861267,1 45760U 20038AG  26005.56635660  .00057490  00000+0  76351-3 0  9994,2 45760  53.0526 102.5530 0001552 241.5540 118.5315 15.57684387307496
STARLINK-1502,45764,53.0549,0.0001347,15.06384504,546.3262005054557,548.1919022016909,1 45764U 20038AL  26005.65788870 -.00001105  00000+0 -55348-4 0  9998,2 45764  53.0549 139.5792 0001347 106.0219 254.0918 15.06384504306985
STARLINK-1470,45772,53.0484,0.0002847,15.23047912,494.6961855776135,498.61069125324684,1 45772U 20038AU  26005.57219172  .00074893  00000+0  31216-2 0  9990,2 45772  53.0484 106.0473 0002847 130.2506 229.8739 15.23047912307442
STARLINK-1482,45773,53.0552,0.0001283,15.06399357,546.3250061685458,548.102051114196,1 45773U 20038AV  26005.62286521  .00002346  00000+0  17633-3 0  9991,2 45773  53.0552 119.7361 0001283  95.2476 264.8660 15.06399357307250
